ONEWEB-0018             
1 45434U 20020L   26004.63763105  .00000040  00000+0  77884-4 0  9998
2 45434  87.8841  53.6266 0001762  92.8470 267.2859 13.11417864281198
ONEWEB-0083             
1 45435U 20020M   26004.62830734 -.00000336  00000+0 -98488-3 0  9993
2 45435  87.8837  53.6170 0001685  97.3959 262.7360 13.11417200281230
ONEWEB-0095             
1 45436U 20020N   26004.61911157 -.00000487  00000+0 -14091-2 0  9996
2 45436  87.8836  53.6292 0002016 121.8417 238.2908 13.11417279281238
ONEWEB-0092             
1 45437U 20020P   26004.66731679  .00000427  00000+0  11683-2 0  9997
2 45437  87.8833  53.6190 0001830 105.6640 254.4690 13.11415329281359
ONEWEB-0085             
1 45438U 20020Q   26004.62745362 -.00000346  00000+0 -10108-2 0  9991
2 45438  87.8831  53.6338 0001772  97.7731 262.3598 13.11417745281235
ONEWEB-0096             
1 45439U 20020R   26004.62914653 -.00000311  00000+0 -91254-3 0  9997
2 45439  87.8843  53.6165 0001824  97.9867 262.1468 13.11418522281224
ONEWEB-0037             
1 45440U 20020S   26004.83854697 -.00000345  00000+0 -10102-2 0  9992
2 45440  87.8846  53.5464 0001821 101.4958 258.6374 13.11414730281288
ONEWEB-0042             
1 45441U 20020T   26004.61883798 -.00000458  00000+0 -13292-2 0  9991
2 45441  87.8840  53.6176 0001876 100.6940 259.4399 13.11416066281220
